YAOGAN-17 01C           
1 39241U 13046C   26192.47581690 -.00000080  00000+0  10214-4 0  9993
2 39241  63.3875  27.0080 0429164  11.6431 349.4147 13.45482422631649
GONETS-M 5              
1 39249U 13048A   26192.50545582  .00000048  00000+0  27603-3 0  9999
2 39249  82.4844 328.2210 0017197 157.4047 202.7793 12.42892679581903
GONETS-M 6              
1 39250U 13048B   26192.47149885  .00000055  00000+0  32222-3 0  9994
2 39250  82.4872 329.1401 0019151 190.1705 169.8990 12.43031914581961
GONETS-M 7              
1 39251U 13048C   26192.46797145  .00000019  00000+0  62252-4 0  9999
2 39251  82.4911 331.1793 0017973 158.7454 201.4376 12.42915416581850
HISAKI (SPRINT-A)       
1 39253U 13049A   26191.99072927  .00000080  00000+0  17602-4 0  9990
2 39253  29.7202  98.9881 0136948 209.8282 149.4426 13.55546483634659
AEHF-3 (USA 246)        
1 39256U 13050A   26192.46919784  .00000030  00000+0  00000+0 0  9993
2 39256   5.3519  66.9628 0088329 187.6923  79.3664  1.00270126 45893
FENGYUN 3C              
1 39260U 13052A   26192.49679522  .00000017  00000+0  29628-4 0  9993
2 39260  98.4995 165.2573 0013824 317.2737  42.7362 14.15760271662005
CASSIOPE                
1 39265U 13055A   26192.48365856  .00022748 -54925-6  24380-3 0  9999
2 39265  80.9130  37.1651 0283757 340.4700  18.5827 15.27255495671371
POPACS 2                
1 39269U 13055E   26190.24884197  .00014766 -88151-6  24179-3 0  9994
2 39269  80.9909 118.9327 0415457 122.9592 241.2292 14.91853625666502
POPACS 3                
1 39270U 13055F   26192.37105322  .00008935  00000+0  21180-3 0  9997
2 39270  80.9987 202.9550 0549245 356.3437   3.3807 14.56594959642074
ASTRA 2E                
1 39285U 13056A   26192.49919978  .00000156  00000+0  00000+0 0  9998
2 39285   0.0823 308.7866 0002760 177.7018  11.1240  1.00273206 46668
SHIJIAN-16 (SJ-16)      
1 39358U 13057A   26192.50287106  .00001306  00000+0  12920-3 0  9999
2 39358  74.9736 310.6277 0015932 173.8429 186.2959 14.92666393689974
FM-6                    
1 39360U 13058A   26192.47059964 -.00000010  00000+0  00000+0 0  9992
2 39360   0.0159  48.4433 0001314 129.4271 164.5647  1.00270007 46313
RADUGA-1M 3             
1 39375U 13062A   26192.28670822  .00000153  00000+0  00000+0 0  9991
2 39375   6.0169  72.0439 0002001 272.6286  82.7191  1.00270319 46340
YAOGAN-19               
1 39410U 13065A   26192.49945845 -.00000005  00000+0  99403-4 0  9994
2 39410 100.1125 167.8147 0009999  35.3927 324.7848 13.15584662606849
APRIZESAT 7             
1 39416U 13066A   26192.30430426  .00000621  00000+0  66713-4 0  9996
2 39416  97.7720 145.1796 0036972 129.7775 230.6710 14.91614326684829
ZACUBE-1 (TSHEPISOSAT)  
1 39417U 13066B   26192.20230991  .00001491  00000+0  11848-3 0  9995
2 39417  97.8013 154.6584 0043797 168.0001 192.2277 15.01317932684339
SKYSAT-A                
1 39418U 13066C   26192.06564227  .00001644  00000+0  96068-4 0  9990
2 39418  97.3805 240.7017 0020122 228.3568 131.5941 15.13102101692096
DUBAISAT-2              
1 39419U 13066D   26192.51893309  .00002330  00000+0  14569-3 0  9995
2 39419  97.4572 182.0290 0009772 316.8590  43.1873 15.10358275690065
OPTOS                   
1 39420U 13066E   26192.53957867  .00000544  00000+0  85260-4 0  9991
2 39420  97.6782  56.0609 0115002 293.3600  65.5544 14.72384023675109
STSAT-3                 
1 39422U 13066G   26192.48222647  .00001155  00000+0  90562-4 0  9998
2 39422  97.6192 161.9785 0008964 321.2451  38.8130 15.02874158687856
WNISAT-1                
1 39423U 13066H   26192.36723838  .00000731  00000+0  14072-3 0  9994
2 39423  97.7229 339.8108 0163641 155.3105 205.6042 14.58114697670257
APRIZESAT 8             
1 39425U 13066K   26192.28797823  .00000439  00000+0  53525-4 0  9994
2 39425  97.8228 139.4214 0045176 204.8859 155.0179 14.87692659683253
TRITON-1                
1 39427U 13066M   26192.53885418  .00001221  00000+0  15091-3 0  9997
2 39427  97.8228 101.7898 0090280 153.9237 206.6565 14.81788422677696
GOMX-1                  
1 39430U 13066Q   26192.49442670  .00000998  00000+0  15600-3 0  9991
2 39430  97.6477  31.4235 0128650   0.1107   0.0106 14.69537490673483
CUBEBUG-2 (LO-74)       
1 39440U 13066AA  26192.31050647  .00001843  00000+0  17366-3 0  9993
2 39440  97.8909 141.3951 0056043 308.5622  51.0583 14.93951590680598
NEE-02 KRYSAOR          
1 39441U 13066AB  26192.30441638  .00001579  00000+0  17712-3 0  9998
2 39441  97.8893 131.3492 0065753 352.1228   7.8949 14.86729301679784
FUNCUBE-1 (AO-73)       
1 39444U 13066AE  26191.98474830  .00004079  00000+0  25254-3 0  9992
2 39444  97.8286 163.9335 0037927 121.2536 239.2417 15.09785992683251
UWE-3                   
1 39446U 13066AG  26192.34365257  .00001839  00000+0  16088-3 0  9993
2 39446  97.8697 148.5848 0047530 237.9674 121.6926 14.97184048681197
SWARM B                 
1 39451U 13067A   26192.48638328  .00002245  00000+0  79228-4 0  9995
2 39451  87.7453 334.9345 0002476  82.1839 277.9691 15.28702454686952
SWARM A                 
1 39452U 13067B   26192.54090722  .00006533  00000+0  11023-3 0  9995
2 39452  87.3306  47.1873 0003328  94.7395 265.4246 15.51411399710023
